SECOR 4 (EGRS 4)
1 01315U 65027B   23110.92492110 -.00000029  00000-0 -13382-3 0  9998
2 01315  90.2502 349.9181 0030402 334.7021  36.6884 12.92627831737939
TIROS 10
1 01430U 65051A   23110.32188803  .00000387  00000-0  13285-3 0  9995
2 01430  98.3970 226.7877 0055195 306.1520  53.4568 14.40569908 29724
